{
  "type": "FeatureCollection",
  "features": [
    {
      "type": "Feature",
      "properties": {
        "norad_id": 33722,
        "name": "FENGYUN 1C DEB",
        "group": "fengyun-1c-debris",
        "lat": -4.4452389018019085,
        "lon": 6.466080357406961,
        "alt_km": 876.3410775397288,
        "timestamp": "2025-12-17T13:48:37.841130+00:00",
        "meta_object_name": "FENGYUN 1C DEB",
        "meta_object_id": "1999-025DHK",
        "meta_epoch": "2025-12-17T07:04:26.450976",
        "meta_mean_motion": 14.2137295,
        "meta_eccentricity": 0.01583197,
        "meta_inclination": 98.5739,
        "meta_ra_of_asc_node": 5.5214,
        "meta_arg_of_pericenter": 238.4084,
        "meta_mean_anomaly": 120.1558,
        "meta_ephemeris_type": 0,
        "meta_classification_type": "U",
        "meta_norad_cat_id": 33722,
        "meta_element_set_no": 999,
        "meta_rev_at_epoch": 92212,
        "meta_bstar": 0.00051688444,
        "meta_mean_motion_dot": 1.237e-05,
        "meta_mean_motion_ddot": 0,
        "tle_line1": "1 33722U 99025DHK 25351.29475059  .00001237  00000+0  51688-3 0  9992",
        "tle_line2": "2 33722  98.5739   5.5214 0158319 238.4084 120.1558 14.21372950922125"
      },
      "geometry": {
        "type": "Point",
        "coordinates": [
          6.466080357406961,
          -4.4452389018019085
        ]
      }
    },
    {
      "type": "Feature",
      "properties": {
        "norad_id": 33723,
        "name": "FENGYUN 1C DEB",
        "group": "fengyun-1c-debris",
        "lat": -40.38944616132465,
        "lon": 80.1461783926293,
        "alt_km": 783.2799885002742,
        "timestamp": "2025-12-17T13:48:37.841141+00:00",
        "meta_object_name": "FENGYUN 1C DEB",
        "meta_object_id": "1999-025DHL",
        "meta_epoch": "2025-12-16T01:12:14.279328",
        "meta_mean_motion": 14.13320394,
        "meta_eccentricity": 0.00985748,
        "meta_inclination": 99.154,
        "meta_ra_of_asc_node": 70.7017,
        "meta_arg_of_pericenter": 321.0566,
        "meta_mean_anomaly": 161.7172,
        "meta_ephemeris_type": 0,
        "meta_classification_type": "U",
        "meta_norad_cat_id": 33723,
        "meta_element_set_no": 999,
        "meta_rev_at_epoch": 63670,
        "meta_bstar": 0.0015495124,
        "meta_mean_motion_dot": 2.998e-05,
        "meta_mean_motion_ddot": 0,
        "tle_line1": "1 33723U 99025DHL 25350.05016527  .00002998  00000+0  15495-2 0  9997",
        "tle_line2": "2 33723  99.1540  70.7017 0098574 321.0566 161.7172 14.13320394636703"
      },
      "geometry": {
        "type": "Point",
        "coordinates": [
          80.1461783926293,
          -40.38944616132465
        ]
      }
    },
    {
      "type": "Feature",
      "properties": {
        "norad_id": 33724,
        "name": "FENGYUN 1C DEB",
        "group": "fengyun-1c-debris",
        "lat": 17.131847905453235,
        "lon": -175.57878005788928,
        "alt_km": 807.140414931795,
        "timestamp": "2025-12-17T13:48:37.841151+00:00",
        "meta_object_name": "FENGYUN 1C DEB",
        "meta_object_id": "1999-025DHM",
        "meta_epoch": "2025-12-16T19:17:17.457792",
        "meta_mean_motion": 14.19653939,
        "meta_eccentricity": 0.00276252,
        "meta_inclination": 98.6037,
        "meta_ra_of_asc_node": 0.9965,
        "meta_arg_of_pericenter": 169.9194,
        "meta_mean_anomaly": 10.5988,
        "meta_ephemeris_type": 0,
        "meta_classification_type": "U",
        "meta_norad_cat_id": 33724,
        "meta_element_set_no": 999,
        "meta_rev_at_epoch": 94019,
        "meta_bstar": 0.00041814698,
        "meta_mean_motion_dot": 8.44e-06,
        "meta_mean_motion_ddot": 0,
        "tle_line1": "1 33724U 99025DHM 25350.80367428  .00000844  00000+0  41815-3 0  9994",
        "tle_line2": "2 33724  98.6037   0.9965 0027625 169.9194  10.5988 14.19653939940198"
      },
      "geometry": {
        "type": "Point",
        "coordinates": [
          -175.57878005788928,
          17.131847905453235
        ]
      }
    },
    {
      "type": "Feature",
      "properties": {
        "norad_id": 33726,
        "name": "FENGYUN 1C DEB",
        "group": "fengyun-1c-debris",
        "lat": 60.381604848162105,
        "lon": 100.11905305462854,
        "alt_km": 738.0044136249435,
        "timestamp": "2025-12-17T13:48:37.841161+00:00",
        "meta_object_name": "FENGYUN 1C DEB",
        "meta_object_id": "1999-025DHP",
        "meta_epoch": "2025-12-17T05:34:50.158272",
        "meta_mean_motion": 14.14311199,
        "meta_eccentricity": 0.01925448,
        "meta_inclination": 98.6391,
        "meta_ra_of_asc_node": 115.2981,
        "meta_arg_of_pericenter": 18.242,
        "meta_mean_anomaly": 96.8766,
        "meta_ephemeris_type": 0,
        "meta_classification_type": "U",
        "meta_norad_cat_id": 33726,
        "meta_element_set_no": 999,
        "meta_rev_at_epoch": 91995,
        "meta_bstar": 0.00023907071,
        "meta_mean_motion_dot": 5.03e-06,
        "meta_mean_motion_ddot": 0,
        "tle_line1": "1 33726U 99025DHP 25351.23252498  .00000503  00000+0  23907-3 0  9998",
        "tle_line2": "2 33726  98.6391 115.2981 0192544  18.2420  96.8766 14.14311199919957"
      },
      "geometry": {
        "type": "Point",
        "coordinates": [
          100.11905305462854,
          60.381604848162105
        ]
      }
    },
    {
      "type": "Feature",
      "properties": {
        "norad_id": 33728,
        "name": "FENGYUN 1C DEB",
        "group": "fengyun-1c-debris",
        "lat": -70.34122533218492,
        "lon": 74.40916616993147,
        "alt_km": 591.9409240450277,
        "timestamp": "2025-12-17T13:48:37.841171+00:00",
        "meta_object_name": "FENGYUN 1C DEB",
        "meta_object_id": "1999-025DHR",
        "meta_epoch": "2025-12-15T02:36:45.443520",
        "meta_mean_motion": 14.92661596,
        "meta_eccentricity": 0.01477512,
        "meta_inclination": 98.9799,
        "meta_ra_of_asc_node": 45.3242,
        "meta_arg_of_pericenter": 207.3761,
        "meta_mean_anomaly": 151.9615,
        "meta_ephemeris_type": 0,
        "meta_classification_type": "U",
        "meta_norad_cat_id": 33728,
        "meta_element_set_no": 999,
        "meta_rev_at_epoch": 98335,
        "meta_bstar": 0.00045899111,
        "meta_mean_motion_dot": 5.769e-05,
        "meta_mean_motion_ddot": 0,
        "tle_line1": "1 33728U 99025DHR 25349.10885930  .00005769  00000+0  45899-3 0  9999",
        "tle_line2": "2 33728  98.9799  45.3242 0147751 207.3761 151.9615 14.92661596983352"
      },
      "geometry": {
        "type": "Point",
        "coordinates": [
          74.40916616993147,
          -70.34122533218492
        ]
      }
    },
    {
      "type": "Feature",
      "properties": {
        "norad_id": 33730,
        "name": "FENGYUN 1C DEB",
        "group": "fengyun-1c-debris",
        "lat": 49.681691660433515,
        "lon": 38.96715852302553,
        "alt_km": 660.9117512701378,
        "timestamp": "2025-12-17T13:48:37.841181+00:00",
        "meta_object_name": "FENGYUN 1C DEB",
        "meta_object_id": "1999-025DHT",
        "meta_epoch": "2025-12-14T21:35:23.228160",
        "meta_mean_motion": 14.63508661,
        "meta_eccentricity": 0.00394949,
        "meta_inclination": 99.0546,
        "meta_ra_of_asc_node": 46.8621,
        "meta_arg_of_pericenter": 4.4187,
        "meta_mean_anomaly": 355.7353,
        "meta_ephemeris_type": 0,
        "meta_classification_type": "U",
        "meta_norad_cat_id": 33730,
        "meta_element_set_no": 999,
        "meta_rev_at_epoch": 95711,
        "meta_bstar": 0.0010211337,
        "meta_mean_motion_dot": 5.298e-05,
        "meta_mean_motion_ddot": 0,
        "tle_line1": "1 33730U 99025DHT 25348.89957440  .00005298  00000+0  10211-2 0  9999",
        "tle_line2": "2 33730  99.0546  46.8621 0039494   4.4187 355.7353 14.63508661957115"
      },
      "geometry": {
        "type": "Point",
        "coordinates": [
          38.96715852302553,
          49.681691660433515
        ]
      }
    },
    {
      "type": "Feature",
      "properties": {
        "norad_id": 33731,
        "name": "FENGYUN 1C DEB",
        "group": "fengyun-1c-debris",
        "lat": 5.559974277744901,
        "lon": -165.15927134633688,
        "alt_km": 973.2528376927658,
        "timestamp": "2025-12-17T13:48:37.841191+00:00",
        "meta_object_name": "FENGYUN 1C DEB",
        "meta_object_id": "1999-025DHU",
        "meta_epoch": "2025-12-14T07:32:51.114336",
        "meta_mean_motion": 13.95346461,
        "meta_eccentricity": 0.01291818,
        "meta_inclination": 99.4471,
        "meta_ra_of_asc_node": 10.5718,
        "meta_arg_of_pericenter": 51.9301,
        "meta_mean_anomaly": 309.3431,
        "meta_ephemeris_type": 0,
        "meta_classification_type": "U",
        "meta_norad_cat_id": 33731,
        "meta_element_set_no": 999,
        "meta_rev_at_epoch": 90471,
        "meta_bstar": 0.0013457717,
        "meta_mean_motion_dot": 1.908e-05,
        "meta_mean_motion_ddot": 0,
        "tle_line1": "1 33731U 99025DHU 25348.31448049  .00001908  00000+0  13458-2 0  9997",
        "tle_line2": "2 33731  99.4471  10.5718 0129181  51.9301 309.3431 13.95346461904712"
      },
      "geometry": {
        "type": "Point",
        "coordinates": [
          -165.15927134633688,
          5.559974277744901
        ]
      }
    }
  ]
}